{"type": "FeatureCollection", "features": [ {"type": "Feature", "properties": {"norad_id": 38755, "name": "SPOT 6", "group": "resource", "lat": -74.95366504882068, "lon": 86.92009256752131, "alt_km": 705.826215251137, "timestamp": "2025-12-15T22:44:28.580323+00:00", "meta": {"OBJECT_NAME": "SPOT 6", "OBJECT_ID": "2012-047A", "EPOCH": "2025-12-15T08:16:40.420128", "MEAN_MOTION": 14.58606423, "ECCENTRICITY": 0.00011851, "INCLINATION": 98.1571, "RA_OF_ASC_NODE": 54.0815, "ARG_OF_PERICENTER": 99.8348, "MEAN_ANOMALY": 260.2985, "EPHEMERIS_TYPE": 0, "CLASSIFICATION_TYPE": "U", "NORAD_CAT_ID": 38755, "ELEMENT_SET_NO": 999, "REV_AT_EPOCH": 70625, "BSTAR": 0.00010379325, "MEAN_MOTION_DOT": 4.38e-06, "MEAN_MOTION_DDOT": 0}, "tle": {"line1": "1 38755U 12047A   25349.34491227  .00000438  00000+0  10379-3 0  9994", "line2": "2 38755  98.1571  54.0815 0001185  99.8348 260.2985 14.58606423706251"}}, "geometry": {"type": "Point", "coordinates": [86.92009256752131, -74.95366504882068]}}, {"type": "Feature", "properties": {"norad_id": 39019, "name": "PLEIADES 1B", "group": "resource", "lat": -0.8234022187986466, "lon": -117.57020056646309, "alt_km": 701.0417818799751, "timestamp": "2025-12-15T22:44:28.580334+00:00", "meta": {"OBJECT_NAME": "PLEIADES 1B", "OBJECT_ID": "2012-068A", "EPOCH": "2025-12-15T08:44:38.269248", "MEAN_MOTION": 14.58556176, "ECCENTRICITY": 0.00012045, "INCLINATION": 98.1791, "RA_OF_ASC_NODE": 61.9743, "ARG_OF_PERICENTER": 84.8818, "MEAN_ANOMALY": 275.2519, "EPHEMERIS_TYPE": 0, "CLASSIFICATION_TYPE": "U", "NORAD_CAT_ID": 39019, "ELEMENT_SET_NO": 999, "REV_AT_EPOCH": 69405, "BSTAR": 0.00011149739, "MEAN_MOTION_DOT": 4.73e-06, "MEAN_MOTION_DDOT": 0}, "tle": {"line1": "1 39019U 12068A   25349.36433182  .00000473  00000+0  11150-3 0  9996", "line2": "2 39019  98.1791  61.9743 0001204  84.8818 275.2519 14.58556176694056"}}, "geometry": {"type": "Point", "coordinates": [-117.57020056646309, -0.8234022187986466]}}, {"type": "Feature", "properties": {"norad_id": 39030, "name": "GOKTURK 2", "group": "resource", "lat": -48.45376278435958, "lon": 2.6731798156829556, "alt_km": 651.5109870594924, "timestamp": "2025-12-15T22:44:28.580345+00:00", "meta": {"OBJECT_NAME": "GOKTURK 2", "OBJECT_ID": "2012-073A", "EPOCH": "2025-12-15T08:41:03.770880", "MEAN_MOTION": 14.75296257, "ECCENTRICITY": 0.00010626, "INCLINATION": 97.6896, "RA_OF_ASC_NODE": 190.8864, "ARG_OF_PERICENTER": 105.2641, "MEAN_ANOMALY": 254.8687, "EPHEMERIS_TYPE": 0, "CLASSIFICATION_TYPE": "U", "NORAD_CAT_ID": 39030, "ELEMENT_SET_NO": 999, "REV_AT_EPOCH": 69740, "BSTAR": 0.00012348603, "MEAN_MOTION_DOT": 7.89e-06, "MEAN_MOTION_DDOT": 0}, "tle": {"line1": "1 39030U 12073A   25349.36184920  .00000789  00000+0  12349-3 0  9999", "line2": "2 39030  97.6896 190.8864 0001062 105.2641 254.8687 14.75296257697400"}}, "geometry": {"type": "Point", "coordinates": [2.6731798156829556, -48.45376278435958]}}, {"type": "Feature", "properties": {"norad_id": 39084, "name": "LANDSAT 8", "group": "resource", "lat": -25.697079556507088, "lon": 61.95601851416812, "alt_km": 708.4490936891252, "timestamp": "2025-12-15T22:44:28.580356+00:00", "meta": {"OBJECT_NAME": "LANDSAT 8", "OBJECT_ID": "2013-008A", "EPOCH": "2025-12-15T08:01:39.688896", "MEAN_MOTION": 14.57116554, "ECCENTRICITY": 0.00010745, "INCLINATION": 98.2071, "RA_OF_ASC_NODE": 57.3697, "ARG_OF_PERICENTER": 90.0312, "MEAN_ANOMALY": 270.101, "EPHEMERIS_TYPE": 0, "CLASSIFICATION_TYPE": "U", "NORAD_CAT_ID": 39084, "ELEMENT_SET_NO": 999, "REV_AT_EPOCH": 67112, "BSTAR": 0.00010611398, "MEAN_MOTION_DOT": 4.33e-06, "MEAN_MOTION_DDOT": 0}, "tle": {"line1": "1 39084U 13008A   25349.33448714  .00000433  00000+0  10611-3 0  9994", "line2": "2 39084  98.2071  57.3697 0001074  90.0312 270.1010 14.57116554671124"}}, "geometry": {"type": "Point", "coordinates": [61.95601851416812, -25.697079556507088]}}, {"type": "Feature", "properties": {"norad_id": 39086, "name": "SARAL", "group": "resource", "lat": 38.38384606551913, "lon": 166.9916064707936, "alt_km": 778.6942218044633, "timestamp": "2025-12-15T22:44:28.580367+00:00", "meta": {"OBJECT_NAME": "SARAL", "OBJECT_ID": "2013-009A", "EPOCH": "2025-12-15T09:09:06.968160", "MEAN_MOTION": 14.32757932, "ECCENTRICITY": 0.00029096, "INCLINATION": 98.5502, "RA_OF_ASC_NODE": 173.2773, "ARG_OF_PERICENTER": 103.8412, "MEAN_ANOMALY": 256.3096, "EPHEMERIS_TYPE": 0, "CLASSIFICATION_TYPE": "U", "NORAD_CAT_ID": 39086, "ELEMENT_SET_NO": 999, "REV_AT_EPOCH": 66928, "BSTAR": 6.3686531e-05, "MEAN_MOTION_DOT": 1.3e-06, "MEAN_MOTION_DDOT": 0}, "tle": {"line1": "1 39086U 13009A   25349.38133065  .00000130  00000+0  63687-4 0  9998", "line2": "2 39086  98.5502 173.2773 0002909 103.8412 256.3096 14.32757932669281"}}, "geometry": {"type": "Point", "coordinates": [166.9916064707936, 38.38384606551913]}}, {"type": "Feature", "properties": {"norad_id": 39150, "name": "GAOFEN-1", "group": "resource", "lat": -38.31060463045284, "lon": 66.87450876263573, "alt_km": 659.4465048978509, "timestamp": "2025-12-15T22:44:28.580377+00:00", "meta": {"OBJECT_NAME": "GAOFEN-1", "OBJECT_ID": "2013-018A", "EPOCH": "2025-12-15T08:16:45.451200", "MEAN_MOTION": 14.76539575, "ECCENTRICITY": 0.00183281, "INCLINATION": 97.9325, "RA_OF_ASC_NODE": 59.9581, "ARG_OF_PERICENTER": 134.957, "MEAN_ANOMALY": 225.313, "EPHEMERIS_TYPE": 0, "CLASSIFICATION_TYPE": "U", "NORAD_CAT_ID": 39150, "ELEMENT_SET_NO": 999, "REV_AT_EPOCH": 68111, "BSTAR": 0.0001068785, "MEAN_MOTION_DOT": 6.96e-06, "MEAN_MOTION_DDOT": 0}, "tle": {"line1": "1 39150U 13018A   25349.34497050  .00000696  00000+0  10688-3 0  9992", "line2": "2 39150  97.9325  59.9581 0018328 134.9570 225.3130 14.76539575681118"}}, "geometry": {"type": "Point", "coordinates": [66.87450876263573, -38.31060463045284]}}, {"type": "Feature", "properties": {"norad_id": 39160, "name": "VNREDSAT 1", "group": "resource", "lat": -68.56650008834431, "lon": -155.7081115372985, "alt_km": 685.4491321947235, "timestamp": "2025-12-15T22:44:28.580388+00:00", "meta": {"OBJECT_NAME": "VNREDSAT 1", "OBJECT_ID": "2013-021B", "EPOCH": "2025-12-15T08:29:21.390720", "MEAN_MOTION": 14.64928973, "ECCENTRICITY": 0.000126, "INCLINATION": 97.9375, "RA_OF_ASC_NODE": 44.5371, "ARG_OF_PERICENTER": 78.7152, "MEAN_ANOMALY": 281.4193, "EPHEMERIS_TYPE": 0, "CLASSIFICATION_TYPE": "U", "NORAD_CAT_ID": 39160, "ELEMENT_SET_NO": 999, "REV_AT_EPOCH": 67337, "BSTAR": 0.00020050953, "MEAN_MOTION_DOT": 1.027e-05, "MEAN_MOTION_DDOT": 0}, "tle": {"line1": "1 39160U 13021B   25349.35371980  .00001027  00000+0  20051-3 0  9995", "line2": "2 39160  97.9375  44.5371 0001260  78.7152 281.4193 14.64928973673371"}}, "geometry": {"type": "Point", "coordinates": [-155.7081115372985, -68.56650008834431]}}, {"type": "Feature", "properties": {"norad_id": 39227, "name": "ARIRANG-5 (KOMPSAT-5)", "group": "resource", "lat": 63.702371424283115, "lon": 158.49753774531703, "alt_km": 544.4711225162837, "timestamp": "2025-12-15T22:44:28.580398+00:00", "meta": {"OBJECT_NAME": "ARIRANG-5 (KOMPSAT-5)", "OBJECT_ID": "2013-042A", "EPOCH": "2025-12-15T08:05:20.207616", "MEAN_MOTION": 15.04519665, "ECCENTRICITY": 0.00035181, "INCLINATION": 97.6149, "RA_OF_ASC_NODE": 173.6032, "ARG_OF_PERICENTER": 47.9388, "MEAN_ANOMALY": 312.2137, "EPHEMERIS_TYPE": 0, "CLASSIFICATION_TYPE": "U", "NORAD_CAT_ID": 39227, "ELEMENT_SET_NO": 999, "REV_AT_EPOCH": 67621, "BSTAR": 0.00016986091, "MEAN_MOTION_DOT": 2.319e-05, "MEAN_MOTION_DDOT": 0}, "tle": {"line1": "1 39227U 13042A   25349.33703944  .00002319  00000+0  16986-3 0  9996", "line2": "2 39227  97.6149 173.6032 0003518  47.9388 312.2137 15.04519665676212"}}, "geometry": {"type": "Point", "coordinates": [158.49753774531703, 63.702371424283115]}}, {"type": "Feature", "properties": {"norad_id": 39418, "name": "SKYSAT-A", "group": "resource", "lat": 20.19437492954636, "lon": -137.1969962350446, "alt_km": 525.3294344418009, "timestamp": "2025-12-15T22:44:28.580410+00:00", "meta": {"OBJECT_NAME": "SKYSAT-A", "OBJECT_ID": "2013-066C", "EPOCH": "2025-12-15T09:19:35.473728", "MEAN_MOTION": 15.11624703, "ECCENTRICITY": 0.00208366, "INCLINATION": 97.4111, "RA_OF_ASC_NODE": 39.5168, "ARG_OF_PERICENTER": 226.821, "MEAN_ANOMALY": 133.1281, "EPHEMERIS_TYPE": 0, "CLASSIFICATION_TYPE": "U", "NORAD_CAT_ID": 39418, "ELEMENT_SET_NO": 999, "REV_AT_EPOCH": 66070, "BSTAR": 0.00014349278, "MEAN_MOTION_DOT": 2.386e-05, "MEAN_MOTION_DDOT": 0}, "tle": {"line1": "1 39418U 13066C   25349.38860502  .00002386  00000+0  14349-3 0  9998", "line2": "2 39418  97.4111  39.5168 0020836 226.8210 133.1281 15.11624703660700"}}, "geometry": {"type": "Point", "coordinates": [-137.1969962350446, 20.19437492954636]}}, {"type": "Feature", "properties": {"norad_id": 39419, "name": "DUBAISAT-2", "group": "resource", "lat": -80.68679985954029, "lon": 107.36963031585935, "alt_km": 543.5398413758976, "timestamp": "2025-12-15T22:44:28.580421+00:00", "meta": {"OBJECT_NAME": "DUBAISAT-2", "OBJECT_ID": "2013-066D", "EPOCH": "2025-12-15T05:39:02.880864", "MEAN_MOTION": 15.08390248, "ECCENTRICITY": 0.00102703, "INCLINATION": 97.4455, "RA_OF_ASC_NODE": 339.5661, "ARG_OF_PERICENTER": 313.0389, "MEAN_ANOMALY": 46.9979, "EPHEMERIS_TYPE": 0, "CLASSIFICATION_TYPE": "U", "NORAD_CAT_ID": 39419, "ELEMENT_SET_NO": 999, "REV_AT_EPOCH": 65864, "BSTAR": 0.00031701086, "MEAN_MOTION_DOT": 4.873e-05, "MEAN_MOTION_DDOT": 0}, "tle": {"line1": "1 39419U 13066D   25349.23545001  .00004873  00000+0  31701-3 0  9991", "line2": "2 39419  97.4455 339.5661 0010270 313.0389  46.9979 15.08390248658645"}}, "geometry": {"type": "Point", "coordinates": [107.36963031585935, -80.68679985954029]}}]}